[
    {
        "Altitude(m)": 702679.0031223337,
        "Argument of Periapsis(deg)": 0.0022780242373254137,
        "Eccentricity": 0.0,
        "Inclination(deg)": 45.0,
        "Latitude(deg)": 13.10201351129124,
        "Longitude(deg)": 68.2546954283632,
        "Mean Anomaly(deg)": 18.670243329496156,
        "RAAN(deg)": 154.99784961170838,
        "Satellite Name": "Constellation 1 683",
        "Satellite Number": 683,
        "Semi-Major Axis(m)": 7083131.272910544,
        "Time(s)": 38
    },
    {
        "Altitude(m)": 702679.584125684,
        "Argument of Periapsis(deg)": 0.002337972243570819,
        "Eccentricity": 0.0,
        "Inclination(deg)": 45.0,
        "Latitude(deg)": 13.14404460909104,
        "Longitude(deg)": 68.29577294309443,
        "Mean Anomaly(deg)": 18.730944469746067,
        "RAAN(deg)": 154.9977930225428,
        "Satellite Name": "Constellation 1 683",
        "Satellite Number": 683,
        "Semi-Major Axis(m)": 7083131.272910544,
        "Time(s)": 39
    },
    {
        "Altitude(m)": 702680.1834564579,
        "Argument of Periapsis(deg)": 0.0023979202498162246,
        "Eccentricity": 0.0,
        "Inclination(deg)": 45.0,
        "Latitude(deg)": 13.186067661542044,
        "Longitude(deg)": 68.33686586774125,
        "Mean Anomaly(deg)": 18.791645609995953,
        "RAAN(deg)": 154.99773643337724,
        "Satellite Name": "Constellation 1 683",
        "Satellite Number": 683,
        "Semi-Major Axis(m)": 7083131.272910544,
        "Time(s)": 40
    },
    {
        "Altitude(m)": 702680.8010939267,
        "Argument of Periapsis(deg)": 0.00245786825606163,
        "Eccentricity": 0.0,
        "Inclination(deg)": 45.0,
        "Latitude(deg)": 13.22808263917901,
        "Longitude(deg)": 68.3779742554776,
        "Mean Anomaly(deg)": 18.852346750245864,
        "RAAN(deg)": 154.99767984421166,
        "Satellite Name": "Constellation 1 683",
        "Satellite Number": 683,
        "Semi-Major Axis(m)": 7083131.272910544,
        "Time(s)": 41
    },
    {
        "Altitude(m)": 702681.4370172757,
        "Argument of Periapsis(deg)": 0.002517816262307036,
        "Eccentricity": 0.0,
        "Inclination(deg)": 45.0,
        "Latitude(deg)": 13.27008951250669,
        "Longitude(deg)": 68.41909815950612,
        "Mean Anomaly(deg)": 18.91304789049575,
        "RAAN(deg)": 154.99762325504608,
        "Satellite Name": "Constellation 1 683",
        "Satellite Number": 683,
        "Semi-Major Axis(m)": 7083131.272910544,
        "Time(s)": 42
    },
    {
        "Altitude(m)": 702682.0912056325,
        "Argument of Periapsis(deg)": 0.0025777642685524413,
        "Eccentricity": 0.0,
        "Inclination(deg)": 45.0,
        "Latitude(deg)": 13.31208825199959,
        "Longitude(deg)": 68.46023763305821,
        "Mean Anomaly(deg)": 18.973749030745665,
        "RAAN(deg)": 154.9975666658805,
        "Satellite Name": "Constellation 1 683",
        "Satellite Number": 683,
        "Semi-Major Axis(m)": 7083131.272910544,
        "Time(s)": 43
    },
    {
        "Altitude(m)": 702682.7636380306,
        "Argument of Periapsis(deg)": 0.002637712274797847,
        "Eccentricity": 0.0,
        "Inclination(deg)": 45.0,
        "Latitude(deg)": 13.354078828101851,
        "Longitude(deg)": 68.50139256129691,
        "Mean Anomaly(deg)": 19.03445017099555,
        "RAAN(deg)": 154.99751007671495,
        "Satellite Name": "Constellation 1 683",
        "Satellite Number": 683,
        "Semi-Major Axis(m)": 7083131.272910544,
        "Time(s)": 44
    },
    {
        "Altitude(m)": 702683.4542934351,
        "Argument of Periapsis(deg)": 0.0026976602810432526,
        "Eccentricity": 0.0,
        "Inclination(deg)": 45.0,
        "Latitude(deg)": 13.39606121122766,
        "Longitude(deg)": 68.54256333370536,
        "Mean Anomaly(deg)": 19.095151311245463,
        "RAAN(deg)": 154.9974534875494,
        "Satellite Name": "Constellation 1 683",
        "Satellite Number": 683,
        "Semi-Major Axis(m)": 7083131.272910544,
        "Time(s)": 45
    },
    {
        "Altitude(m)": 702684.1631507351,
        "Argument of Periapsis(deg)": 0.0027576082872886585,
        "Eccentricity": 0.0,
        "Inclination(deg)": 45.0,
        "Latitude(deg)": 13.438035371760238,
        "Longitude(deg)": 68.58374983550438,
        "Mean Anomaly(deg)": 19.155852451495374,
        "RAAN(deg)": 154.9973968983838,
        "Satellite Name": "Constellation 1 683",
        "Satellite Number": 683,
        "Semi-Major Axis(m)": 7083131.272910544,
        "Time(s)": 46
    },
    {
        "Altitude(m)": 702684.8901887446,
        "Argument of Periapsis(deg)": 0.0028175562935340644,
        "Eccentricity": 0.0,
        "Inclination(deg)": 45.0,
        "Latitude(deg)": 13.480001280052408,
        "Longitude(deg)": 68.62495212004066,
        "Mean Anomaly(deg)": 19.21655359174526,
        "RAAN(deg)": 154.99734030921823,
        "Satellite Name": "Constellation 1 683",
        "Satellite Number": 683,
        "Semi-Major Axis(m)": 7083131.272910544,
        "Time(s)": 47
    },
    {
        "Altitude(m)": 702685.6353861978,
        "Argument of Periapsis(deg)": 0.00287750429977947,
        "Eccentricity": 0.0,
        "Inclination(deg)": 45.0,
        "Latitude(deg)": 13.521958906426232,
        "Longitude(deg)": 68.66617024069005,
        "Mean Anomaly(deg)": 19.277254731995175,
        "RAAN(deg)": 154.99728372005265,
        "Satellite Name": "Constellation 1 683",
        "Satellite Number": 683,
        "Semi-Major Axis(m)": 7083131.272910544,
        "Time(s)": 48
    },
    {
        "Altitude(m)": 702686.3987217593,
        "Argument of Periapsis(deg)": 0.002937452306024875,
        "Eccentricity": 0.0,
        "Inclination(deg)": 45.0,
        "Latitude(deg)": 13.563908221172996,
        "Longitude(deg)": 68.70740425085731,
        "Mean Anomaly(deg)": 19.337955872245058,
        "RAAN(deg)": 154.9972271308871,
        "Satellite Name": "Constellation 1 683",
        "Satellite Number": 683,
        "Semi-Major Axis(m)": 7083131.272910544,
        "Time(s)": 49
    },
    {
        "Altitude(m)": 702687.1801740113,
        "Argument of Periapsis(deg)": 0.0029974003122702807,
        "Eccentricity": 0.0,
        "Inclination(deg)": 45.0,
        "Latitude(deg)": 13.605849194553029,
        "Longitude(deg)": 68.74865420397629,
        "Mean Anomaly(deg)": 19.398657012494972,
        "RAAN(deg)": 154.99717054172152,
        "Satellite Name": "Constellation 1 683",
        "Satellite Number": 683,
        "Semi-Major Axis(m)": 7083131.272910544,
        "Time(s)": 50
    },
    {
        "Altitude(m)": 702687.9797214678,
        "Argument of Periapsis(deg)": 0.0030573483185156866,
        "Eccentricity": 0.0,
        "Inclination(deg)": 45.0,
        "Latitude(deg)": 13.647781796795691,
        "Longitude(deg)": 68.78992015351,
        "Mean Anomaly(deg)": 19.45935815274486,
        "RAAN(deg)": 154.99711395255596,
        "Satellite Name": "Constellation 1 683",
        "Satellite Number": 683,
        "Semi-Major Axis(m)": 7083131.272910544,
        "Time(s)": 51
    },
    {
        "Altitude(m)": 702688.7973425644,
        "Argument of Periapsis(deg)": 0.003117296324761092,
        "Eccentricity": 0.0,
        "Inclination(deg)": 45.0,
        "Latitude(deg)": 13.689705998098958,
        "Longitude(deg)": 68.83120198485358,
        "Mean Anomaly(deg)": 19.520059292994745,
        "RAAN(deg)": 154.99705736339035,
        "Satellite Name": "Constellation 1 683",
        "Satellite Number": 683,
        "Semi-Major Axis(m)": 7083131.272910544,
        "Time(s)": 52
    },
    {
        "Altitude(m)": 702689.633015656,
        "Argument of Periapsis(deg)": 0.0031772443310064975,
        "Eccentricity": 0.0,
        "Inclination(deg)": 45.0,
        "Latitude(deg)": 13.731621768630129,
        "Longitude(deg)": 68.87250008772259,
        "Mean Anomaly(deg)": 19.58076043324463,
        "RAAN(deg)": 154.9970007742248,
        "Satellite Name": "Constellation 1 683",
        "Satellite Number": 683,
        "Semi-Major Axis(m)": 7083131.272910544,
        "Time(s)": 53
    },
    {
        "Altitude(m)": 702690.4867190366,
        "Argument of Periapsis(deg)": 0.0032371923372519038,
        "Eccentricity": 0.0,
        "Inclination(deg)": 45.0,
        "Latitude(deg)": 13.773529078524616,
        "Longitude(deg)": 68.91381434757058,
        "Mean Anomaly(deg)": 19.641461573494542,
        "RAAN(deg)": 154.99694418505925,
        "Satellite Name": "Constellation 1 683",
        "Satellite Number": 683,
        "Semi-Major Axis(m)": 7083131.272910544,
        "Time(s)": 54
    },
    {
        "Altitude(m)": 702691.3584309084,
        "Argument of Periapsis(deg)": 0.0032971403434973088,
        "Eccentricity": 0.0,
        "Inclination(deg)": 45.0,
        "Latitude(deg)": 13.81542789788655,
        "Longitude(deg)": 68.95514481797755,
        "Mean Anomaly(deg)": 19.702162713744457,
        "RAAN(deg)": 154.99688759589367,
        "Satellite Name": "Constellation 1 683",
        "Satellite Number": 683,
        "Semi-Major Axis(m)": 7083131.272910544,
        "Time(s)": 55
    },
    {
        "Altitude(m)": 702692.2481294124,
        "Argument of Periapsis(deg)": 0.0033570883497427146,
        "Eccentricity": 0.0,
        "Inclination(deg)": 45.0,
        "Latitude(deg)": 13.857318196788452,
        "Longitude(deg)": 68.99649155255284,
        "Mean Anomaly(deg)": 19.76286385399434,
        "RAAN(deg)": 154.99683100672812,
        "Satellite Name": "Constellation 1 683",
        "Satellite Number": 683,
        "Semi-Major Axis(m)": 7083131.272910544,
        "Time(s)": 56
    }
]